{
    "links": {
        "self": "http://www.neowsapp.com/rest/v1/neo/3654411?api_key=iIulBulltgU6a56xZRHN4H3l9WmuAYTsLGpBGhQ2"
    },
    "id": "3654411",
    "neo_reference_id": "3654411",
    "name": "(2013 XH10)",
    "designation": "2013 XH10",
    "nasa_jpl_url": "http://ssd.jpl.nasa.gov/sbdb.cgi?sstr=3654411",
    "absolute_magnitude_h": 23.4,
    "estimated_diameter": {
        "kilometers": {
            "estimated_diameter_min": 0.0555334912,
            "estimated_diameter_max": 0.1241766613
        },
        "meters": {
            "estimated_diameter_min": 55.5334911581,
            "estimated_diameter_max": 124.1766612574
        },
        "miles": {
            "estimated_diameter_min": 0.0345069009,
            "estimated_diameter_max": 0.0771597762
        },
        "feet": {
            "estimated_diameter_min": 182.1964991311,
            "estimated_diameter_max": 407.4037573197
        }
    },
    "is_potentially_hazardous_asteroid": false,
    "close_approach_data": [
        {
            "close_approach_date": "2013-12-14",
            "close_approach_date_full": "2013-Dec-14 06:08",
            "epoch_date_close_approach": 1387001280000,
            "relative_velocity": {
                "kilometers_per_second": "12.3185222524",
                "kilometers_per_hour": "44346.6801087167",
                "miles_per_hour": "27555.3024264412"
            },
            "miss_distance": {
                "astronomical": "0.15086508",
                "lunar": "58.68651612",
                "kilometers": "22569094.6253796",
                "miles": "14023785.10865448"
            },
            "orbiting_body": "Earth"
        }
    ],
    "orbital_data": {
        "orbit_id": "7",
        "orbit_determination_date": "2017-04-06 08:43:22",
        "first_observation_date": "2013-12-07",
        "last_observation_date": "2013-12-11",
        "data_arc_in_days": 4,
        "observations_used": 20,
        "orbit_uncertainty": "8",
        "minimum_orbit_intersection": ".145778",
        "jupiter_tisserand_invariant": "4.616",
        "epoch_osculation": "2456636.5",
        "eccentricity": ".2309090091861512",
        "semi_major_axis": "1.412759965828916",
        "inclination": "23.03420099676548",
        "ascending_node_longitude": "77.10141077214575",
        "orbital_period": "613.3395867085336",
        "perihelion_distance": "1.0865409619015",
        "perihelion_argument": "40.48669944843361",
        "aphelion_distance": "1.738978969756332",
        "perihelion_time": "2456680.026532834737",
        "mean_anomaly": "334.4520781634275",
        "mean_motion": ".5869505373555423",
        "equinox": "J2000",
        "orbit_class": {
            "orbit_class_type": "AMO",
            "orbit_class_description": "Near-Earth asteroid orbits similar to that of 1221 Amor",
            "orbit_class_range": "1.017 AU < q (perihelion) < 1.3 AU"
        }
    },
    "is_sentry_object": false
}